{
  "norad_id": 36744,
  "name": "COMS 1",
  "history": [
    {
      "epoch": "2026-03-28T20:31:40.056672",
      "apogee_km": 35790.78146969246,
      "perigee_km": 35781.89319850283,
      "latitude_deg": 4.484893208368414,
      "longitude_deg": 96.51117407996207,
      "semi_major_axis_km": 42164.47433409765,
      "eccentricity": 0.0001054,
      "inclination_deg": 4.5984,
      "raan_deg": 76.4793,
      "arg_perigee_deg": 282.6583,
      "mean_anomaly_deg": 263.1816,
      "mean_motion_rev_day": 1.00272704
    }
  ]
}