COMS 1                  
1 36744U 10032A   26087.85532473 -.00000360  00000+0  00000+0 0  9998
2 36744   4.5984  76.4793 0001054 282.6583 263.1816  1.00272704 50281
